{
    "links": {
        "self": "http://www.neowsapp.com/rest/v1/neo/3387615?api_key=iIulBulltgU6a56xZRHN4H3l9WmuAYTsLGpBGhQ2"
    },
    "id": "3387615",
    "neo_reference_id": "3387615",
    "name": "(2007 TM15)",
    "designation": "2007 TM15",
    "nasa_jpl_url": "http://ssd.jpl.nasa.gov/sbdb.cgi?sstr=3387615",
    "absolute_magnitude_h": 21.3,
    "estimated_diameter": {
        "kilometers": {
            "estimated_diameter_min": 0.1460679643,
            "estimated_diameter_max": 0.3266178974
        },
        "meters": {
            "estimated_diameter_min": 146.0679642714,
            "estimated_diameter_max": 326.6178974458
        },
        "miles": {
            "estimated_diameter_min": 0.090762397,
            "estimated_diameter_max": 0.2029508896
        },
        "feet": {
            "estimated_diameter_min": 479.2256199,
            "estimated_diameter_max": 1071.581062656
        }
    },
    "is_potentially_hazardous_asteroid": false,
    "close_approach_data": [
        {
            "close_approach_date": "2007-10-19",
            "close_approach_date_full": "2007-Oct-19 16:15",
            "epoch_date_close_approach": 1192810500000,
            "relative_velocity": {
                "kilometers_per_second": "32.4523526518",
                "kilometers_per_hour": "116828.4695464832",
                "miles_per_hour": "72592.6676468134"
            },
            "miss_distance": {
                "astronomical": "0.2113125864",
                "lunar": "82.2005961096",
                "kilometers": "31611912.829630968",
                "miles": "19642731.7867566384"
            },
            "orbiting_body": "Earth"
        },
        {
            "close_approach_date": "2010-04-19",
            "close_approach_date_full": "2010-Apr-19 20:12",
            "epoch_date_close_approach": 1271707920000,
            "relative_velocity": {
                "kilometers_per_second": "36.9306957118",
                "kilometers_per_hour": "132950.5045625776",
                "miles_per_hour": "82610.273237786"
            },
            "miss_distance": {
                "astronomical": "0.3570059528",
                "lunar": "138.8753156392",
                "kilometers": "53407330.116200536",
                "miles": "33185776.0893219568"
            },
            "orbiting_body": "Earth"
        }
    ],
    "orbital_data": {
        "orbit_id": "12",
        "orbit_determination_date": "2017-04-06 09:05:48",
        "first_observation_date": "2007-10-08",
        "last_observation_date": "2007-10-29",
        "data_arc_in_days": 21,
        "observations_used": 32,
        "orbit_uncertainty": "8",
        "minimum_orbit_intersection": ".196635",
        "jupiter_tisserand_invariant": "3.578",
        "epoch_osculation": "2454385.5",
        "eccentricity": ".5081825790037373",
        "semi_major_axis": "1.672118869038611",
        "inclination": "61.51438766638882",
        "ascending_node_longitude": "22.8984632879986",
        "orbital_period": "789.7673008048629",
        "perihelion_distance": ".822377189769757",
        "perihelion_argument": "90.48946895783975",
        "aphelion_distance": "2.521860548307464",
        "perihelion_time": "2454460.350794990697",
        "mean_anomaly": "325.8807269316043",
        "mean_motion": ".4558304701057121",
        "equinox": "J2000",
        "orbit_class": {
            "orbit_class_type": "APO",
            "orbit_class_description": "Near-Earth asteroid orbits which cross the Earth’s orbit similar to that of 1862 Apollo",
            "orbit_class_range": "a (semi-major axis) > 1.0 AU; q (perihelion) < 1.017 AU"
        }
    },
    "is_sentry_object": false
}